ONEWEB-0275             
1 48993U 21060AC  26195.58832513  .00000013  00000+0  87427-6 0  9997
2 48993  87.9081 223.3331 0002005  96.0450 264.0910 13.16595524243165
ONEWEB-0276             
1 48994U 21060AD  26195.62158742  .00000077  00000+0  16848-3 0  9994
2 48994  87.9081 223.3254 0001887  95.0455 265.0891 13.16594096243185
ONEWEB-0277             
1 48995U 21060AE  26195.63425747 -.00000050  00000+0 -16528-3 0  9996
2 48995  87.9077 223.3299 0002172  98.8406 261.2971 13.16594908243173
ONEWEB-0278             
1 48996U 21060AF  26195.62475500  .00000026  00000+0  34495-4 0  9993
2 48996  87.9081 223.3243 0002214  89.4144 270.7240 13.16594117243301
ONEWEB-0279             
1 48997U 21060AG  26195.63267101 -.00000074  00000+0 -22691-3 0  9990
2 48997  87.9082 223.3206 0001991 100.8046 259.3309 13.16593748243232
ONEWEB-0280             
1 48998U 21060AH  26195.57170678  .00000066  00000+0  13809-3 0  9996
2 48998  87.9082 223.3367 0002404  95.0925 265.0480 13.16596019243162
ONEWEB-0281             
1 48999U 21060AJ  26195.57725309 -.00000007  00000+0 -52001-4 0  9999
2 48999  87.9080 223.3315 0002091  92.2057 267.9313 13.16593755243239
ONEWEB-0282             
1 49000U 21060AK  26195.60733359  .00000214  00000+0  52606-3 0  9999
2 49000  87.9077 223.3332 0002141  96.6698 263.4677 13.16595190243210
ONEWEB-0283             
1 49001U 21060AL  26195.59624796  .00000121  00000+0  28413-3 0  9998
2 49001  87.9075 223.3347 0001997  98.8061 261.3296 13.16593631243224
ONEWEB-0284             
1 49002U 21060AM  26195.58992435  .00000034  00000+0  56144-4 0  9992
2 49002  87.9078 223.3299 0002385  91.7518 268.3886 13.16593858243206
ONEWEB-0285             
1 49075U 21075A   26195.88685393  .00000471  00000+0  12746-2 0  9996
2 49075  87.8969 345.1548 0001794  89.9990 270.1345 13.12441244238842
ONEWEB-0286             
1 49076U 21075B   26195.94515524  .00000400  00000+0  10768-2 0  9996
2 49076  87.8960 345.1574 0001758  89.3734 270.7596 13.12442070238205
ONEWEB-0287             
1 49077U 21075C   26195.88335225  .00000074  00000+0  15764-3 0  9997
2 49077  87.9142   0.3554 0001873  79.1470 280.9873 13.17648024237278
ONEWEB-0288             
1 49078U 21075D   26195.92156387 -.00000062  00000+0 -20852-3 0  9996
2 49078  87.8968 345.1414 0001966  89.1871 270.9483 13.12443322238825
ONEWEB-0289             
1 49079U 21075E   26195.92216514 -.00000022  00000+0 -88814-4 0  9995
2 49079  87.9151   0.3661 0002281  96.8057 263.3335 13.17649840237859
ONEWEB-0290             
1 49080U 21075F   26195.89516429  .00000000  00000+0 -32963-4 0  9990
2 49080  87.9153   0.3438 0002351  97.2034 262.9364 13.17650248237269
ONEWEB-0291             
1 49081U 21075G   26195.87999410  .00000004  00000+0 -22510-4 0  9995
2 49081  87.9145   0.3531 0002117  85.0581 275.0792 13.17646804237259
ONEWEB-0293             
1 49082U 21075H   26195.90528487  .00000011  00000+0 -54256-5 0  9993
2 49082  87.9145   0.3504 0002019  92.9344 267.2019 13.17650135237285
ONEWEB-0294             
1 49083U 21075J   26195.85210903  .00000171  00000+0  44000-3 0  9999
2 49083  87.8970 345.1590 0002188  97.3464 262.7913 13.12443903238209
ONEWEB-0295             
1 49084U 21075K   26195.90444803  .00000028  00000+0  39274-4 0  9993
2 49084  87.9144   0.3548 0001994  85.1847 274.9512 13.17649854237242
ONEWEB-0296             
1 49085U 21075L   26195.90800989 -.00000413  00000+0 -11820-2 0  9990
2 49085  87.8969 345.1560 0002045  87.7794 272.3569 13.12443135238219
ONEWEB-0297             
1 49086U 21075M   26195.86227489  .00000369  00000+0  98916-3 0  9994
2 49086  87.8958 345.1721 0001860  92.4306 267.7035 13.12442632238816
ONEWEB-0298             
1 49087U 21075N   26195.90882340  .00000025  00000+0  31048-4 0  9996
2 49087  87.9146   0.3522 0001738  90.1183 270.0148 13.17649253237272
ONEWEB-0299             
1 49088U 21075P   26195.91035481  .00000023  00000+0  24887-4 0  9995
2 49088  87.9156   0.3345 0001841  86.9606 273.1737 13.17648154237250
ONEWEB-0300             
1 49089U 21075Q   26195.85464985  .00000276  00000+0  73118-3 0  9994
2 49089  87.8971 345.1563 0001490  94.8469 265.2829 13.12443262238839
ONEWEB-0301             
1 49090U 21075R   26195.91478336 -.00000273  00000+0 -79385-3 0  9999
2 49090  87.8968 345.1421 0001541 100.2418 259.8884 13.12443767238204
ONEWEB-0302             
1 49091U 21075S   26195.90123567 -.00000464  00000+0 -13253-2 0  9995
2 49091  87.8967 345.1569 0002183  94.6716 265.4662 13.12441303238185
ONEWEB-0304             
1 49092U 21075T   26195.88504163  .00000043  00000+0  77837-4 0  9999
2 49092  87.9142   0.3597 0001926  86.9238 273.2114 13.17647192237222
ONEWEB-0305             
1 49093U 21075U   26195.87829250 -.00000005  00000+0 -46142-4 0  9991
2 49093  87.9152   0.3475 0001928  80.3265 279.8084 13.17647603237257
ONEWEB-0308             
1 49094U 21075V   26195.89445342 -.00000251  00000+0 -73363-3 0  9997
2 49094  87.8971 345.1505 0001838  96.2582 263.8756 13.12442037238190
