OBJECT_NAME,OBJECT_ID,EPOCH,MEAN_MOTION,ECCENTRICITY,INCLINATION,RA_OF_ASC_NODE,ARG_OF_PERICENTER,MEAN_ANOMALY,EPHEMERIS_TYPE,CLASSIFICATION_TYPE,NORAD_CAT_ID,ELEMENT_SET_NO,REV_AT_EPOCH,BSTAR,MEAN_MOTION_DOT,MEAN_MOTION_DDOT
ONEWEB-0275,2021-060AC,2026-07-14T14:07:11.291232,13.16595524,.0002005,87.9081,223.3331,96.0450,264.0910,0,U,48993,999,24316,.87427E-6,.13E-6,0
ONEWEB-0276,2021-060AD,2026-07-14T14:55:05.153088,13.16594096,.00018876,87.9081,223.3254,95.0455,265.0891,0,U,48994,999,24318,.16847597E-3,.77E-6,0
ONEWEB-0277,2021-060AE,2026-07-14T15:13:19.845408,13.16594908,.00021727,87.9077,223.3299,98.8406,261.2971,0,U,48995,999,24317,-.16527608E-3,-.5E-6,0
ONEWEB-0278,2021-060AF,2026-07-14T14:59:38.832000,13.16594117,.00022144,87.9081,223.3243,89.4144,270.7240,0,U,48996,999,24330,.3449517E-4,.26E-6,0
ONEWEB-0279,2021-060AG,2026-07-14T15:11:02.775264,13.16593748,.00019917,87.9082,223.3206,100.8046,259.3309,0,U,48997,999,24323,-.22690825E-3,-.74E-6,0
ONEWEB-0280,2021-060AH,2026-07-14T13:43:15.465792,13.16596019,.0002404,87.9082,223.3367,95.0925,265.0480,0,U,48998,999,24316,.13809E-3,.66E-6,0
ONEWEB-0281,2021-060AJ,2026-07-14T13:51:14.666976,13.16593755,.0002091,87.9080,223.3315,92.2057,267.9313,0,U,48999,999,24323,-.52001E-4,-.7E-7,0
ONEWEB-0282,2021-060AK,2026-07-14T14:34:33.622176,13.16595190,.0002141,87.9077,223.3332,96.6698,263.4677,0,U,49000,999,24321,.52606E-3,.214E-5,0
ONEWEB-0283,2021-060AL,2026-07-14T14:18:35.823744,13.16593631,.0001997,87.9075,223.3347,98.8061,261.3296,0,U,49001,999,24322,.28413E-3,.121E-5,0
ONEWEB-0284,2021-060AM,2026-07-14T14:09:29.463840,13.16593858,.0002385,87.9078,223.3299,91.7518,268.3886,0,U,49002,999,24320,.56144E-4,.34E-6,0
ONEWEB-0285,2021-075A,2026-07-14T21:17:04.179552,13.12441244,.00017945,87.8969,345.1548,89.9990,270.1345,0,U,49075,999,23884,.12745646E-2,.471E-5,0
ONEWEB-0286,2021-075B,2026-07-14T22:41:01.412736,13.12442070,.00017583,87.8960,345.1574,89.3734,270.7596,0,U,49076,999,23820,.10768165E-2,.4E-5,0
ONEWEB-0287,2021-075C,2026-07-14T21:12:01.634400,13.17648024,.00018738,87.9142,0.3554,79.1470,280.9873,0,U,49077,999,23727,.15764357E-3,.74E-6,0
ONEWEB-0288,2021-075D,2026-07-14T22:07:03.118368,13.12443322,.00019662,87.8968,345.1414,89.1871,270.9483,0,U,49078,999,23882,-.20852243E-3,-.62E-6,0
ONEWEB-0289,2021-075E,2026-07-14T22:07:55.068096,13.17649840,.00022811,87.9151,0.3661,96.8057,263.3335,0,U,49079,999,23785,-.88814147E-4,-.22E-6,0
ONEWEB-0290,2021-075F,2026-07-14T21:29:02.194656,13.17650248,.00023513,87.9153,0.3438,97.2034,262.9364,0,U,49080,999,23726,-.32962907E-4,0,0
ONEWEB-0291,2021-075G,2026-07-14T21:07:11.490240,13.17646804,.00021171,87.9145,0.3531,85.0581,275.0792,0,U,49081,999,23725,-.22509608E-4,.4E-7,0
ONEWEB-0293,2021-075H,2026-07-14T21:43:36.612768,13.17650135,.00020199,87.9145,0.3504,92.9344,267.2019,0,U,49082,999,23728,-.5425619E-5,.11E-6,0
ONEWEB-0294,2021-075J,2026-07-14T20:27:02.220192,13.12443903,.00021888,87.8970,345.1590,97.3464,262.7913,0,U,49083,999,23820,.4400004E-3,.171E-5,0
ONEWEB-0295,2021-075K,2026-07-14T21:42:24.309792,13.17649854,.00019944,87.9144,0.3548,85.1847,274.9512,0,U,49084,999,23724,.39274041E-4,.28E-6,0
ONEWEB-0296,2021-075L,2026-07-14T21:47:32.054496,13.12443135,.00020459,87.8969,345.1560,87.7794,272.3569,0,U,49085,999,23821,-.11820298E-2,-.413E-5,0
ONEWEB-0297,2021-075M,2026-07-14T20:41:40.550496,13.12442632,.00018605,87.8958,345.1721,92.4306,267.7035,0,U,49086,999,23881,.9891607E-3,.369E-5,0
ONEWEB-0298,2021-075N,2026-07-14T21:48:42.341760,13.17649253,.00017384,87.9146,0.3522,90.1183,270.0148,0,U,49087,999,23727,.3104771E-4,.25E-6,0
ONEWEB-0299,2021-075P,2026-07-14T21:50:54.655584,13.17648154,.00018415,87.9156,0.3345,86.9606,273.1737,0,U,49088,999,23725,.24887392E-4,.23E-6,0
ONEWEB-0300,2021-075Q,2026-07-14T20:30:41.747040,13.12443262,.00014908,87.8971,345.1563,94.8469,265.2829,0,U,49089,999,23883,.73118192E-3,.276E-5,0
ONEWEB-0301,2021-075R,2026-07-14T21:57:17.282304,13.12443767,.00015413,87.8968,345.1421,100.2418,259.8884,0,U,49090,999,23820,-.79385286E-3,-.273E-5,0
ONEWEB-0302,2021-075S,2026-07-14T21:37:46.761888,13.12441303,.00021836,87.8967,345.1569,94.6716,265.4662,0,U,49091,999,23818,-.13252836E-2,-.464E-5,0
ONEWEB-0304,2021-075T,2026-07-14T21:14:27.596832,13.17647192,.0001926,87.9142,0.3597,86.9238,273.2114,0,U,49092,999,23722,.77837341E-4,.43E-6,0
ONEWEB-0305,2021-075U,2026-07-14T21:04:44.472000,13.17647603,.00019288,87.9152,0.3475,80.3265,279.8084,0,U,49093,999,23725,-.46141795E-4,-.5E-7,0
ONEWEB-0308,2021-075V,2026-07-14T21:28:00.775488,13.12442037,.00018388,87.8971,345.1505,96.2582,263.8756,0,U,49094,999,23819,-.73362553E-3,-.251E-5,0
